ORBCOMM FM103           
1 40091U 14040F   24277.92094300  .00005402  00000+0  12219-2 0  9999
2 40091  47.0035 147.2613 0002197 195.6457 164.4361 14.57161136543771
ORBCOMM FM114           
1 41179U 15081A   24277.81336754  .00007091  00000+0  15928-2 0  9999
2 41179  47.0021  56.9655 0003160 252.7380 107.3160 14.57131548467117
ORBCOMM FM119           
1 41180U 15081B   24277.85788591  .00004854  00000+0  11022-2 0  9990
2 41180  47.0010 325.9862 0002188 300.5709  59.4960 14.57140648468322
ORBCOMM FM105           
1 41181U 15081C   24277.48958766  .00002135  00000+0  65527-3 0  9993
2 41181  47.0019 308.1139 0002596 258.7860 101.2729 14.44689806463624
ORBCOMM FM110           
1 41182U 15081D   24277.78957862  .00006286  00000+0  14168-2 0  9998
2 41182  47.0014  56.4618 0000624 355.9937   4.0943 14.57115628467116
ORBCOMM FM118           
1 41183U 15081E   24277.83625461  .00005860  00000+0  13232-2 0  9990
2 41183  47.0033  56.5862 0000784  28.4580 331.6348 14.57123976467127
ORBCOMM FM112           
1 41184U 15081F   24277.49255986  .00005190  00000+0  11764-2 0  9998
2 41184  46.9990 326.9069 0002699 288.0427  72.0164 14.57120808468216
ORBCOMM FM113           
1 41185U 15081G   24277.46957744  .00004474  00000+0  10196-2 0  9999
2 41185  47.0007 327.3030 0002332 301.9292  58.1366 14.57113859468194
